MOLNIYA 2-9             
1 07276U 74026A   22283.86598999  .00000103  00000+0  00000+0 0  9993
2 07276  64.2787 211.1560 6435463 279.8590  17.7611  2.45097372252219
MOLNIYA 2-10            
1 07376U 74056A   22280.77324710 -.00000050  00000+0  00000+0 0  9994
2 07376  64.2556  83.1130 6749281 285.8271  13.6840  2.01060602352615
MOLNIYA 1-S             
1 07392U 74060A   22284.57345156  .00000072  00000+0  00000+0 0  9999
2 07392   4.8292 281.2011 0011484 215.3240 146.5269  1.00211976120674
MOLNIYA 1-29            
1 07780U 75036A   22282.82371604 -.00000043  00000+0 -83606-1 0  9992
2 07780  63.4139 202.5941 6859130 288.3698  12.3065  2.00614565347919
MOLNIYA 2-14            
1 08195U 75081A   22282.98576140  .00000820  00000+0  00000+0 0  9998
2 08195  63.3791 175.7645 6770765 292.5916  11.7935  2.02055894345206
MOLNIYA 1-32            
1 08601U 76006A   22283.00738586 -.00000605  00000+0  34218-2 0  9999
2 08601  63.4782 281.7863 7213751 283.9009  11.1449  1.99953406 54958
MOLNIYA 1-36            
1 09880U 77021A   22283.91140092 -.00001107  00000+0  00000+0 0  9993
2 09880  63.5070 253.4735 7133723 289.6316  10.2728  2.00863549231685
MOLNIYA 3-8             
1 10455U 77105A   22283.14915072 -.00001207  00000+0  23768-2 0  9999
2 10455  63.4228 340.4500 7359119 282.3679  10.8067  2.00767700329443
MOLNIYA 1-40            
1 10925U 78055A   22283.35171058 -.00000054  00000+0  00000+0 0  9997
2 10925  63.4508  31.7720 7268952 280.6928  11.8661  2.00739724324982
MOLNIYA 3-10            
1 11057U 78095A   22283.50811250  .00000105  00000+0  65829-3 0  9990
2 11057  63.2122 356.9255 5787812 311.1826  11.7584  4.09859065388446
MOLNIYA 3-13            
1 11896U 80063A   22276.12488067  .00000127  00000+0  00000+0 0  9995
2 11896  62.7238 123.6252 7118902 276.4279  13.9558  2.00663610309301
MOLNIYA 1-49            
1 12156U 81009A   22280.00607496  .00000318  00000+0  10297-2 0  9991
2 12156  61.6931 148.4407 7291741 263.9631  16.7529  2.05695880223787
MOLNIYA 1-52            
1 13012U 81123A   22283.01818756  .00000831  00000+0  12222-1 0  9996
2 13012  61.6679 262.2179 7224322 256.3666  20.5466  2.00391075298873
MOLNIYA 1-53            
1 13070U 82015A   22282.71462193 -.00001202  00000+0 -16002-1 0  9992
2 13070  62.5964 200.1858 7009691 282.9375  12.8355  2.00637029297558
MOLNIYA 3-20            
1 13875U 83015A   22280.27187727  .00001530  00000+0  28975-2 0  9997
2 13875  62.6778 335.0556 7398615 259.1254  17.6192  2.00627929225952
MOLNIYA 1-56            
1 13890U 83019A   22283.22965754 -.00000176  00000+0  73165-3 0  9998
2 13890  62.9169 359.6406 7453378 265.0501  14.9543  1.99852534288892
MOLNIYA 1-63            
1 15429U 84124A   22283.14220580  .00000164  00000+0  00000+0 0  9998
2 15429  63.7611 156.7702 6666973 258.8713 337.6895  2.00865525277057
MOLNIYA 3-24            
1 15738U 85040A   22283.56284753 -.00000055  00000+0 -14231-3 0  9993
2 15738  63.6449  61.2406 6837311 247.2410  30.4705  2.55627618306815
MOLNIYA 3-27            
1 16393U 85117A   22281.22258762  .00000023  00000+0  00000+0 0  9996
2 16393  64.3662  66.7262 7016622 247.7434  27.9376  2.12396688276571
MOLNIYA 1-69            
1 17078U 86089A   22280.00329852  .00000294  00000+0  00000+0 0  9990
2 17078  63.9871 175.9780 6666477 257.2850  25.9657  2.00679216263061
MOLNIYA 3-31            
1 17328U 87008A   22282.60307767  .00000434  00000+0  00000+0 0  9995
2 17328  63.6955 115.0048 7081575 253.5458  23.6141  2.00654831258158
MOLNIYA 1-71            
1 18946U 88017A   22283.54484217 -.00000208  00000+0  00000+0 0  9993
2 18946  63.3888 108.3632 7194748 256.3385  20.9719  2.00611688253405
MOLNIYA 1-75            
1 19807U 89014A   22282.27777675 -.00000110  00000+0  00000+0 0  9992
2 19807  64.0231 272.1503 6825887 266.5028  19.7235  2.00579652246281
MOLNIYA 1-80            
1 21118U 91012A   22283.12862006 -.00001056  00000+0  00000+0 0  9999
2 21118  65.1960 320.4830 6770624 276.1639  16.5327  2.05249925233334
MOLNIYA 3-40            
1 21196U 91022A   22281.13996377 -.00000777  00000+0  00000+0 0  9993
2 21196  65.1022 314.3373 6799732 273.0111  17.4356  2.03026120231973
MOLNIYA 1-81            
1 21426U 91043A   22281.18121043 -.00000157  00000+0  00000+0 0  9999
2 21426  64.0722 329.7703 7088317 266.3914  17.5466  2.00634992229427
MOLNIYA 3-41            
1 21706U 91065A   22282.91044247  .00001147  00000+0  00000+0 0  9995
2 21706  64.0925 153.5170 6874938 254.8247  25.1271  2.04339979229202
MOLNIYA 3-42            
1 22178U 92067A   22280.84698979  .00000138  00000+0  00000+0 0  9998
2 22178  64.6717 204.1390 6421725 265.2387  24.1479  2.20435244 82533
MOLNIYA 1-86            
1 22671U 93035A   22283.86518733  .00000639  00000+0  80426-3 0  9996
2 22671  63.0768 169.8016 4863093   8.8672 357.3949  5.62736356358790
MOLNIYA 1-87            
1 22949U 93079A   22284.39179197 -.00001185  00000+0  00000+0 0  9992
2 22949  64.0734  78.9457 6893558 283.6705  13.3984  2.02871140211633
MOLNIYA 1-88            
1 23420U 94081A   22282.99490760  .00000096  00000+0  00000+0 0  9996
2 23420  64.2770 170.4834 5796859 280.9351  22.2481  3.34495351117536
MOLNIYA 3-47            
1 23642U 95042A   22280.67442575  .00000617  00000+0  00000+0 0  9993
2 23642  64.1866  61.0386 6940758 283.9634  13.0384  2.01921548199288
MOLNIYA 1-90            
1 24960U 97054A   22282.93899290  .00000128  00000+0  25355-2 0  9993
2 24960  63.6600 136.7687 6104104 297.9068  14.0031  3.18687335211657
MOLNIYA 1-91            
1 25485U 98054A   22283.36837473  .00000164  00000+0  22925-2 0  9990
2 25485  63.0599 132.3658 6770847 291.8800 302.4682  2.36442182181099
MOLNIYA 3-50            
1 25847U 99036A   22283.14545852 -.00000073  00000+0 -12822-3 0  9993
2 25847  63.2541 316.8094 7359649 282.3056  10.7225  2.00671635170419
